[{"OBJECT_NAME":"STARLINK-34536","OBJECT_ID":"2025-144AA","EPOCH":"2025-09-30T05:31:17.526144","MEAN_MOTION":15.30213637,"ECCENTRICITY":0.00010833,"INCLINATION":53.1576,"RA_OF_ASC_NODE":206.4337,"ARG_OF_PERICENTER":75.4102,"MEAN_ANOMALY":284.7019,"EPHEMERIS_TYPE":0,"CLASSIFICATION_TYPE":"U","NORAD_CAT_ID":64748,"ELEMENT_SET_NO":999,"REV_AT_EPOCH":1514,"BSTAR":0.0019982977,"MEAN_MOTION_DOT":0.00059323,"MEAN_MOTION_DDOT":0},{"OBJECT_NAME":"STARLINK-34595","OBJECT_ID":"2025-144AB","EPOCH":"2025-09-30T05:32:48.804288","MEAN_MOTION":15.30219158,"ECCENTRICITY":0.00012584,"INCLINATION":53.1576,"RA_OF_ASC_NODE":206.439,"ARG_OF_PERICENTER":104.6552,"MEAN_ANOMALY":255.4589,"EPHEMERIS_TYPE":0,"CLASSIFICATION_TYPE":"U","NORAD_CAT_ID":64749,"ELEMENT_SET_NO":999,"REV_AT_EPOCH":1514,"BSTAR":0.0015562631,"MEAN_MOTION_DOT":0.00046046,"MEAN_MOTION_DDOT":0},{"OBJECT_NAME":"STARLINK-34531","OBJECT_ID":"2025-144AC","EPOCH":"2025-09-30T05:08:30.270336","MEAN_MOTION":15.30202748,"ECCENTRICITY":0.00014422,"INCLINATION":53.1592,"RA_OF_ASC_NODE":206.3394,"ARG_OF_PERICENTER":85.8084,"MEAN_ANOMALY":274.3081,"EPHEMERIS_TYPE":0,"CLASSIFICATION_TYPE":"U","NORAD_CAT_ID":64750,"ELEMENT_SET_NO":999,"REV_AT_EPOCH":1514,"BSTAR":0.0018707564,"MEAN_MOTION_DOT":0.00055467,"MEAN_MOTION_DDOT":0},{"OBJECT_NAME":"STARLINK-33965","OBJECT_ID":"2025-147A","EPOCH":"2025-09-30T06:51:50.672160","MEAN_MOTION":15.30194221,"ECCENTRICITY":0.00012581,"INCLINATION":53.1574,"RA_OF_ASC_NODE":267.7865,"ARG_OF_PERICENTER":78.8474,"MEAN_ANOMALY":281.2669,"EPHEMERIS_TYPE":0,"CLASSIFICATION_TYPE":"U","NORAD_CAT_ID":64755,"ELEMENT_SET_NO":999,"REV_AT_EPOCH":1423,"BSTAR":0.0014904629,"MEAN_MOTION_DOT":0.00044038,"MEAN_MOTION_DDOT":0},{"OBJECT_NAME":"STARLINK-34371","OBJECT_ID":"2025-147B","EPOCH":"2025-09-30T04:15:39.364416","MEAN_MOTION":15.30235667,"ECCENTRICITY":0.00014685,"INCLINATION":53.1588,"RA_OF_ASC_NODE":268.5298,"ARG_OF_PERICENTER":98.3076,"MEAN_ANOMALY":261.8091,"EPHEMERIS_TYPE":0,"CLASSIFICATION_TYPE":"U","NORAD_CAT_ID":64756,"ELEMENT_SET_NO":999,"REV_AT_EPOCH":1412,"BSTAR":0.0018215416,"MEAN_MOTION_DOT":0.00054043,"MEAN_MOTION_DDOT":0},{"OBJECT_NAME":"STARLINK-34401","OBJECT_ID":"2025-147C","EPOCH":"2025-09-30T06:04:52.358592","MEAN_MOTION":15.30312122,"ECCENTRICITY":0.00017067,"INCLINATION":53.1596,"RA_OF_ASC_NODE":268.2935,"ARG_OF_PERICENTER":85.0082,"MEAN_ANOMALY":275.1114,"EPHEMERIS_TYPE":0,"CLASSIFICATION_TYPE":"U","NORAD_CAT_ID":64757,"ELEMENT_SET_NO":999,"REV_AT_EPOCH":1411,"BSTAR":0.001785321,"MEAN_MOTION_DOT":0.0005308,"MEAN_MOTION_DDOT":0},{"OBJECT_NAME":"STARLINK-34593","OBJECT_ID":"2025-147D","EPOCH":"2025-09-30T06:50:19.528800","MEAN_MOTION":15.30205282,"ECCENTRICITY":0.0001162,"INCLINATION":53.1581,"RA_OF_ASC_NODE":267.7765,"ARG_OF_PERICENTER":76.4953,"MEAN_ANOMALY":283.6177,"EPHEMERIS_TYPE":0,"CLASSIFICATION_TYPE":"U","NORAD_CAT_ID":64758,"ELEMENT_SET_NO":999,"REV_AT_EPOCH":1419,"BSTAR":0.0017321674,"MEAN_MOTION_DOT":0.00051306,"MEAN_MOTION_DDOT":0},{"OBJECT_NAME":"STARLINK-34598","OBJECT_ID":"2025-147E","EPOCH":"2025-09-30T06:32:05.327232","MEAN_MOTION":15.30176429,"ECCENTRICITY":0.00013538,"INCLINATION":53.1579,"RA_OF_ASC_NODE":267.6964,"ARG_OF_PERICENTER":100.6726,"MEAN_ANOMALY":259.4427,"EPHEMERIS_TYPE":0,"CLASSIFICATION_TYPE":"U","NORAD_CAT_ID":64759,"ELEMENT_SET_NO":999,"REV_AT_EPOCH":1414,"BSTAR":0.0016107056,"MEAN_MOTION_DOT":0.00047617,"MEAN_MOTION_DDOT":0},{"OBJECT_NAME":"STARLINK-34235","OBJECT_ID":"2025-147F","EPOCH":"2025-09-30T03:48:17.951040","MEAN_MOTION":15.30209843,"ECCENTRICITY":0.00013368,"INCLINATION":53.1574,"RA_OF_ASC_NODE":268.4128,"ARG_OF_PERICENTER":63.5491,"MEAN_ANOMALY":296.5647,"EPHEMERIS_TYPE":0,"CLASSIFICATION_TYPE":"U","NORAD_CAT_ID":64760,"ELEMENT_SET_NO":999,"REV_AT_EPOCH":1421,"BSTAR":0.0013974218,"MEAN_MOTION_DOT":0.00041271,"MEAN_MOTION_DDOT":0},{"OBJECT_NAME":"STARLINK-34635","OBJECT_ID":"2025-147G","EPOCH":"2025-09-29T10:10:54.813792","MEAN_MOTION":15.30197196,"ECCENTRICITY":9.712e-5,"INCLINATION":53.1583,"RA_OF_ASC_NODE":271.6531,"ARG_OF_PERICENTER":65.9838,"MEAN_ANOMALY":294.1264,"EPHEMERIS_TYPE":0,"CLASSIFICATION_TYPE":"U","NORAD_CAT_ID":64761,"ELEMENT_SET_NO":999,"REV_AT_EPOCH":1406,"BSTAR":0.0014356152,"MEAN_MOTION_DOT":0.00042399,"MEAN_MOTION_DDOT":0},{"OBJECT_NAME":"STARLINK-34638","OBJECT_ID":"2025-147H","EPOCH":"2025-09-30T03:55:53.817312","MEAN_MOTION":15.30246587,"ECCENTRICITY":0.00011711,"INCLINATION":53.1588,"RA_OF_ASC_NODE":268.4479,"ARG_OF_PERICENTER":83.4096,"MEAN_ANOMALY":276.7038,"EPHEMERIS_TYPE":0,"CLASSIFICATION_TYPE":"U","NORAD_CAT_ID":64762,"ELEMENT_SET_NO":999,"REV_AT_EPOCH":1417,"BSTAR":0.0018632367,"MEAN_MOTION_DOT":0.00055316,"MEAN_MOTION_DDOT":0},{"OBJECT_NAME":"STARLINK-34534","OBJECT_ID":"2025-147J","EPOCH":"2025-09-30T04:06:32.336640","MEAN_MOTION":15.30190855,"ECCENTRICITY":0.00017586,"INCLINATION":53.1575,"RA_OF_ASC_NODE":268.4897,"ARG_OF_PERICENTER":40.541,"MEAN_ANOMALY":319.5721,"EPHEMERIS_TYPE":0,"CLASSIFICATION_TYPE":"U","NORAD_CAT_ID":64763,"ELEMENT_SET_NO":999,"REV_AT_EPOCH":1417,"BSTAR":0.0013584746,"MEAN_MOTION_DOT":0.00040081,"MEAN_MOTION_DDOT":0},{"OBJECT_NAME":"STARLINK-34261","OBJECT_ID":"2025-147K","EPOCH":"2025-09-30T03:51:20.139264","MEAN_MOTION":15.30261592,"ECCENTRICITY":8.864e-5,"INCLINATION":53.1579,"RA_OF_ASC_NODE":268.4223,"ARG_OF_PERICENTER":101.2845,"MEAN_ANOMALY":258.8256,"EPHEMERIS_TYPE":0,"CLASSIFICATION_TYPE":"U","NORAD_CAT_ID":64764,"ELEMENT_SET_NO":999,"REV_AT_EPOCH":1421,"BSTAR":0.0017675921,"MEAN_MOTION_DOT":0.00052462,"MEAN_MOTION_DDOT":0},{"OBJECT_NAME":"STARLINK-34566","OBJECT_ID":"2025-147L","EPOCH":"2025-09-30T05:07:07.356576","MEAN_MOTION":15.30275427,"ECCENTRICITY":0.00010738,"INCLINATION":53.1577,"RA_OF_ASC_NODE":268.0389,"ARG_OF_PERICENTER":85.5364,"MEAN_ANOMALY":274.576,"EPHEMERIS_TYPE":0,"CLASSIFICATION_TYPE":"U","NORAD_CAT_ID":64765,"ELEMENT_SET_NO":999,"REV_AT_EPOCH":1418,"BSTAR":0.0014537607,"MEAN_MOTION_DOT":0.00043048,"MEAN_MOTION_DDOT":0},{"OBJECT_NAME":"STARLINK-34645","OBJECT_ID":"2025-147M","EPOCH":"2025-09-30T06:07:55.784928","MEAN_MOTION":15.30282554,"ECCENTRICITY":0.00018532,"INCLINATION":53.1589,"RA_OF_ASC_NODE":268.3021,"ARG_OF_PERICENTER":92.4522,"MEAN_ANOMALY":267.669,"EPHEMERIS_TYPE":0,"CLASSIFICATION_TYPE":"U","NORAD_CAT_ID":64766,"ELEMENT_SET_NO":999,"REV_AT_EPOCH":1418,"BSTAR":0.0024339601,"MEAN_MOTION_DOT":0.00072621,"MEAN_MOTION_DDOT":0},{"OBJECT_NAME":"STARLINK-34639","OBJECT_ID":"2025-147N","EPOCH":"2025-09-29T21:15:22.334688","MEAN_MOTION":15.30228801,"ECCENTRICITY":0.0001511,"INCLINATION":53.158,"RA_OF_ASC_NODE":269.5474,"ARG_OF_PERICENTER":77.9783,"MEAN_ANOMALY":282.1387,"EPHEMERIS_TYPE":0,"CLASSIFICATION_TYPE":"U","NORAD_CAT_ID":64767,"ELEMENT_SET_NO":999,"REV_AT_EPOCH":1408,"BSTAR":0.0014848,"MEAN_MOTION_DOT":0.00043916,"MEAN_MOTION_DDOT":0}]
