STARLINK-34536          
1 64748U 25144AA  25273.23006396  .00059323  00000+0  19983-2 0  9996
2 64748  53.1576 206.4337 0001083  75.4102 284.7019 15.30213637 15147
STARLINK-34595          
1 64749U 25144AB  25273.23112042  .00046046  00000+0  15563-2 0  9991
2 64749  53.1576 206.4390 0001258 104.6552 255.4589 15.30219158 15146
STARLINK-34531          
1 64750U 25144AC  25273.21423924  .00055467  00000+0  18708-2 0  9996
2 64750  53.1592 206.3394 0001442  85.8084 274.3081 15.30202748 15148
STARLINK-33965          
1 64755U 25147A   25273.28600315  .00044038  00000+0  14905-2 0  9999
2 64755  53.1574 267.7865 0001258  78.8474 281.2669 15.30194221 14231
STARLINK-34371          
1 64756U 25147B   25273.17753894  .00054043  00000+0  18215-2 0  9994
2 64756  53.1588 268.5298 0001468  98.3076 261.8091 15.30235667 14125
STARLINK-34401          
1 64757U 25147C   25273.25338378  .00053080  00000+0  17853-2 0  9997
2 64757  53.1596 268.2935 0001706  85.0082 275.1114 15.30312122 14110
STARLINK-34593          
1 64758U 25147D   25273.28494825  .00051306  00000+0  17322-2 0  9991
2 64758  53.1581 267.7765 0001162  76.4953 283.6177 15.30205282 14196
STARLINK-34598          
1 64759U 25147E   25273.27228388  .00047617  00000+0  16107-2 0  9990
2 64759  53.1579 267.6964 0001353 100.6726 259.4427 15.30176429 14148
STARLINK-34235          
1 64760U 25147F   25273.15854110  .00041271  00000+0  13974-2 0  9996
2 64760  53.1574 268.4128 0001336  63.5491 296.5647 15.30209843 14214
STARLINK-34635          
1 64761U 25147G   25272.42424553  .00042399  00000+0  14356-2 0  9997
2 64761  53.1583 271.6531 0000971  65.9838 294.1264 15.30197196 14063
STARLINK-34638          
1 64762U 25147H   25273.16381733  .00055316  00000+0  18632-2 0  9996
2 64762  53.1588 268.4479 0001171  83.4096 276.7038 15.30246587 14174
STARLINK-34534          
1 64763U 25147J   25273.17120760  .00040081  00000+0  13585-2 0  9994
2 64763  53.1575 268.4897 0001758  40.5410 319.5721 15.30190855 14171
STARLINK-34261          
1 64764U 25147K   25273.16064976  .00052462  00000+0  17676-2 0  9991
2 64764  53.1579 268.4223 0000886 101.2845 258.8256 15.30261592 14217
STARLINK-34566          
1 64765U 25147L   25273.21327959  .00043048  00000+0  14538-2 0  9995
2 64765  53.1577 268.0389 0001073  85.5364 274.5760 15.30275427 14187
STARLINK-34645          
1 64766U 25147M   25273.25550677  .00072621  00000+0  24340-2 0  9996
2 64766  53.1589 268.3021 0001853  92.4522 267.6690 15.30282554 14180
STARLINK-34639          
1 64767U 25147N   25272.88567517  .00043916  00000+0  14848-2 0  9993
2 64767  53.1580 269.5474 0001511  77.9783 282.1387 15.30228801 14084
